{
  "norad_id": 66517,
  "name": "STARLINK-35937",
  "history": [
    {
      "epoch": "2026-03-28T13:17:22.912224",
      "apogee_km": 483.8653577613677,
      "perigee_km": 482.17339659875506,
      "latitude_deg": 42.61164562340862,
      "longitude_deg": 164.8587913599331,
      "semi_major_axis_km": 6861.156377180061,
      "eccentricity": 0.0001233,
      "inclination_deg": 43.0021,
      "raan_deg": 171.8148,
      "arg_perigee_deg": 281.7268,
      "mean_anomaly_deg": 78.3445,
      "mean_motion_rev_day": 15.27589925
    }
  ]
}