{"fetched_at":"2026-03-30T06:02:59Z","count":15439,"tles":[{"name":"STARLINK-35937","line1":"1 66517U 25265B   26087.55373741  .00033866  00000+0  12342-2 0  9992","line2":"2 66517  43.0021 171.8148 0001233 281.7268  78.3445 15.27589925 19992","category":"Starlink"}]}